CCSDS_OMM_VERS = 2.0
CREATION_DATE  = 
ORIGINATOR     = 

OBJECT_NAME    = ISS OBJECT XX
OBJECT_ID      = 1998-067XX
CENTER_NAME    = EARTH
REF_FRAME      = TEME
TIME_SYSTEM    = UTC
MEAN_ELEMENT_THEORY = SGP/SGP4

EPOCH          = 2026-03-06T09:44:44.607840
MEAN_MOTION    = 15.73534846
ECCENTRICITY   = .00070254
INCLINATION    = 51.6211
RA_OF_ASC_NODE = 80.9498
ARG_OF_PERICENTER = 63.2110
MEAN_ANOMALY   = 296.9607

EPHEMERIS_TYPE = 0
CLASSIFICATION_TYPE = U
NORAD_CAT_ID   = 66911
ELEMENT_SET_NO = 999
REV_AT_EPOCH   = 1467
BSTAR          = .16386152E-2
MEAN_MOTION_DOT = .240114E-2
MEAN_MOTION_DDOT = 0

CCSDS_OMM_VERS = 2.0
CREATION_DATE  = 
ORIGINATOR     = 

OBJECT_NAME    = ISS OBJECT XY
OBJECT_ID      = 1998-067XY
CENTER_NAME    = EARTH
REF_FRAME      = TEME
TIME_SYSTEM    = UTC
MEAN_ELEMENT_THEORY = SGP/SGP4

EPOCH          = 2026-03-06T10:47:05.015040
MEAN_MOTION    = 15.62981143
ECCENTRICITY   = .0003032
INCLINATION    = 51.6268
RA_OF_ASC_NODE = 83.5178
ARG_OF_PERICENTER = 70.8849
MEAN_ANOMALY   = 289.2473

EPHEMERIS_TYPE = 0
CLASSIFICATION_TYPE = U
NORAD_CAT_ID   = 66912
ELEMENT_SET_NO = 999
REV_AT_EPOCH   = 1464
BSTAR          = .98520063E-3
MEAN_MOTION_DOT = .91647E-3
MEAN_MOTION_DDOT = 0

CCSDS_OMM_VERS = 2.0
CREATION_DATE  = 
ORIGINATOR     = 

OBJECT_NAME    = ISS OBJECT XZ
OBJECT_ID      = 1998-067XZ
CENTER_NAME    = EARTH
REF_FRAME      = TEME
TIME_SYSTEM    = UTC
MEAN_ELEMENT_THEORY = SGP/SGP4

EPOCH          = 2026-03-06T10:37:58.419264
MEAN_MOTION    = 15.51523335
ECCENTRICITY   = .00094596
INCLINATION    = 51.6308
RA_OF_ASC_NODE = 87.9775
ARG_OF_PERICENTER = 174.9626
MEAN_ANOMALY   = 185.1460

EPHEMERIS_TYPE = 0
CLASSIFICATION_TYPE = U
NORAD_CAT_ID   = 67683
ELEMENT_SET_NO = 999
REV_AT_EPOCH   = 428
BSTAR          = .67173175E-3
MEAN_MOTION_DOT = .40277E-3
MEAN_MOTION_DDOT = 0

CCSDS_OMM_VERS = 2.0
CREATION_DATE  = 
ORIGINATOR     = 

OBJECT_NAME    = GXIBA-1
OBJECT_ID      = 1998-067YA
CENTER_NAME    = EARTH
REF_FRAME      = TEME
TIME_SYSTEM    = UTC
MEAN_ELEMENT_THEORY = SGP/SGP4

EPOCH          = 2026-03-06T08:33:09.123840
MEAN_MOTION    = 15.53698977
ECCENTRICITY   = .00109321
INCLINATION    = 51.6296
RA_OF_ASC_NODE = 88.1497
ARG_OF_PERICENTER = 164.4811
MEAN_ANOMALY   = 195.6517

EPHEMERIS_TYPE = 0
CLASSIFICATION_TYPE = U
NORAD_CAT_ID   = 67684
ELEMENT_SET_NO = 999
REV_AT_EPOCH   = 427
BSTAR          = .11727792E-2
MEAN_MOTION_DOT = .7687E-3
MEAN_MOTION_DDOT = 0

CCSDS_OMM_VERS = 2.0
CREATION_DATE  = 
ORIGINATOR     = 

OBJECT_NAME    = CORAL
OBJECT_ID      = 1998-067YB
CENTER_NAME    = EARTH
REF_FRAME      = TEME
TIME_SYSTEM    = UTC
MEAN_ELEMENT_THEORY = SGP/SGP4

EPOCH          = 2026-03-06T08:59:53.384352
MEAN_MOTION    = 15.51836923
ECCENTRICITY   = .00113315
INCLINATION    = 51.6303
RA_OF_ASC_NODE = 88.2731
ARG_OF_PERICENTER = 171.0094
MEAN_ANOMALY   = 189.1100

EPHEMERIS_TYPE = 0
CLASSIFICATION_TYPE = U
NORAD_CAT_ID   = 67685
ELEMENT_SET_NO = 999
REV_AT_EPOCH   = 427
BSTAR          = .72551429E-3
MEAN_MOTION_DOT = .4409E-3
MEAN_MOTION_DDOT = 0

CCSDS_OMM_VERS = 2.0
CREATION_DATE  = 
ORIGINATOR     = 

OBJECT_NAME    = ISS OBJECT YC
OBJECT_ID      = 1998-067YC
CENTER_NAME    = EARTH
REF_FRAME      = TEME
TIME_SYSTEM    = UTC
MEAN_ELEMENT_THEORY = SGP/SGP4

EPOCH          = 2026-03-06T08:53:28.719456
MEAN_MOTION    = 15.52303119
ECCENTRICITY   = .00078269
INCLINATION    = 51.6305
RA_OF_ASC_NODE = 88.2448
ARG_OF_PERICENTER = 138.7374
MEAN_ANOMALY   = 221.4209

EPHEMERIS_TYPE = 0
CLASSIFICATION_TYPE = U
NORAD_CAT_ID   = 67686
ELEMENT_SET_NO = 999
REV_AT_EPOCH   = 427
BSTAR          = .83918789E-3
MEAN_MOTION_DOT = .51923E-3
MEAN_MOTION_DDOT = 0

CCSDS_OMM_VERS = 2.0
CREATION_DATE  = 
ORIGINATOR     = 

OBJECT_NAME    = LEOPARD
OBJECT_ID      = 1998-067YD
CENTER_NAME    = EARTH
REF_FRAME      = TEME
TIME_SYSTEM    = UTC
MEAN_ELEMENT_THEORY = SGP/SGP4

EPOCH          = 2026-03-06T10:35:07.082880
MEAN_MOTION    = 15.51685674
ECCENTRICITY   = .00077795
INCLINATION    = 51.6311
RA_OF_ASC_NODE = 87.9659
ARG_OF_PERICENTER = 143.5641
MEAN_ANOMALY   = 216.5880

EPHEMERIS_TYPE = 0
CLASSIFICATION_TYPE = U
NORAD_CAT_ID   = 67687
ELEMENT_SET_NO = 999
REV_AT_EPOCH   = 420
BSTAR          = .73033201E-3
MEAN_MOTION_DOT = .44085E-3
MEAN_MOTION_DDOT = 0

CCSDS_OMM_VERS = 2.0
CREATION_DATE  = 
ORIGINATOR     = 

OBJECT_NAME    = ISS OBJECT YE
OBJECT_ID      = 1998-067YE
CENTER_NAME    = EARTH
REF_FRAME      = TEME
TIME_SYSTEM    = UTC
MEAN_ELEMENT_THEORY = SGP/SGP4

EPOCH          = 2026-03-06T08:56:21.134112
MEAN_MOTION    = 15.52085564
ECCENTRICITY   = .00077521
INCLINATION    = 51.6307
RA_OF_ASC_NODE = 88.2580
ARG_OF_PERICENTER = 139.1868
MEAN_ANOMALY   = 220.9703

EPHEMERIS_TYPE = 0
CLASSIFICATION_TYPE = U
NORAD_CAT_ID   = 67688
ELEMENT_SET_NO = 999
REV_AT_EPOCH   = 419
BSTAR          = .77965705E-3
MEAN_MOTION_DOT = .47802E-3
MEAN_MOTION_DDOT = 0

CCSDS_OMM_VERS = 2.0
CREATION_DATE  = 
ORIGINATOR     = 

OBJECT_NAME    = CREW DRAGON 12
OBJECT_ID      = 2026-031A
CENTER_NAME    = EARTH
REF_FRAME      = TEME
TIME_SYSTEM    = UTC
MEAN_ELEMENT_THEORY = SGP/SGP4

EPOCH          = 2026-03-06T13:04:21.510624
MEAN_MOTION    = 15.48477653
ECCENTRICITY   = .00081171
INCLINATION    = 51.6317
RA_OF_ASC_NODE = 87.9051
ARG_OF_PERICENTER = 163.3368
MEAN_ANOMALY   = 196.7888

EPHEMERIS_TYPE = 0
CLASSIFICATION_TYPE = U
NORAD_CAT_ID   = 67796
ELEMENT_SET_NO = 999
REV_AT_EPOCH   = 55572
BSTAR          = .18044032E-3
MEAN_MOTION_DOT = .9332E-4
MEAN_MOTION_DDOT = 0

